[{"OBJECT_NAME":"TIANMU-1 10","OBJECT_ID":"2023-101D","EPOCH":"2026-03-07T14:34:34.421376","MEAN_MOTION":15.29172788,"ECCENTRICITY":0.00067552,"INCLINATION":97.275,"RA_OF_ASC_NODE":119.7983,"ARG_OF_PERICENTER":140.3122,"MEAN_ANOMALY":219.8614,"EPHEMERIS_TYPE":0,"CLASSIFICATION_TYPE":"U","NORAD_CAT_ID":57402,"ELEMENT_SET_NO":999,"REV_AT_EPOCH":14611,"BSTAR":0.00037751104,"MEAN_MOTION_DOT":0.00010625,"MEAN_MOTION_DDOT":0},{"OBJECT_NAME":"FENGYUN 3F","OBJECT_ID":"2023-111A","EPOCH":"2026-03-07T15:28:01.564320","MEAN_MOTION":14.1991894,"ECCENTRICITY":0.00012865,"INCLINATION":98.6932,"RA_OF_ASC_NODE":138.5105,"ARG_OF_PERICENTER":80.7747,"MEAN_ANOMALY":279.3575,"EPHEMERIS_TYPE":0,"CLASSIFICATION_TYPE":"U","NORAD_CAT_ID":57490,"ELEMENT_SET_NO":999,"REV_AT_EPOCH":13445,"BSTAR":6.7406312e-5,"MEAN_MOTION_DOT":1.0e-6,"MEAN_MOTION_DDOT":0},{"OBJECT_NAME":"ARKTIKA-M 2","OBJECT_ID":"2023-198A","EPOCH":"2026-03-05T01:50:11.956992","MEAN_MOTION":2.00612038,"ECCENTRICITY":0.68777232,"INCLINATION":63.2186,"RA_OF_ASC_NODE":165.9003,"ARG_OF_PERICENTER":267.7621,"MEAN_ANOMALY":18.8474,"EPHEMERIS_TYPE":0,"CLASSIFICATION_TYPE":"U","NORAD_CAT_ID":58584,"ELEMENT_SET_NO":999,"REV_AT_EPOCH":1623,"BSTAR":0,"MEAN_MOTION_DOT":1.5e-6,"MEAN_MOTION_DDOT":0},{"OBJECT_NAME":"TIANMU-1 11","OBJECT_ID":"2023-205A","EPOCH":"2026-03-07T15:24:29.178432","MEAN_MOTION":15.25846997,"ECCENTRICITY":0.0009235,"INCLINATION":97.3546,"RA_OF_ASC_NODE":89.8258,"ARG_OF_PERICENTER":15.4548,"MEAN_ANOMALY":344.697,"EPHEMERIS_TYPE":0,"CLASSIFICATION_TYPE":"U","NORAD_CAT_ID":58645,"ELEMENT_SET_NO":999,"REV_AT_EPOCH":12203,"BSTAR":0.00034391393,"MEAN_MOTION_DOT":8.743e-5,"MEAN_MOTION_DDOT":0},{"OBJECT_NAME":"TIANMU-1 12","OBJECT_ID":"2023-205B","EPOCH":"2026-03-07T14:36:35.658720","MEAN_MOTION":15.25771154,"ECCENTRICITY":0.00070419,"INCLINATION":97.3536,"RA_OF_ASC_NODE":89.5724,"ARG_OF_PERICENTER":1.9829,"MEAN_ANOMALY":358.1436,"EPHEMERIS_TYPE":0,"CLASSIFICATION_TYPE":"U","NORAD_CAT_ID":58646,"ELEMENT_SET_NO":999,"REV_AT_EPOCH":12201,"BSTAR":0.00037166323,"MEAN_MOTION_DOT":9.429e-5,"MEAN_MOTION_DDOT":0},{"OBJECT_NAME":"TIANMU-1 13","OBJECT_ID":"2023-205C","EPOCH":"2026-03-07T15:21:10.989792","MEAN_MOTION":15.25821122,"ECCENTRICITY":0.00066727,"INCLINATION":97.3563,"RA_OF_ASC_NODE":89.841,"ARG_OF_PERICENTER":341.5588,"MEAN_ANOMALY":18.5407,"EPHEMERIS_TYPE":0,"CLASSIFICATION_TYPE":"U","NORAD_CAT_ID":58647,"ELEMENT_SET_NO":999,"REV_AT_EPOCH":12201,"BSTAR":0.0003564358,"MEAN_MOTION_DOT":9.052e-5,"MEAN_MOTION_DDOT":0},{"OBJECT_NAME":"TIANMU-1 14","OBJECT_ID":"2023-205D","EPOCH":"2026-03-07T14:58:55.086816","MEAN_MOTION":15.25797736,"ECCENTRICITY":0.00075786,"INCLINATION":97.3498,"RA_OF_ASC_NODE":89.0963,"ARG_OF_PERICENTER":345.1003,"MEAN_ANOMALY":15.0011,"EPHEMERIS_TYPE":0,"CLASSIFICATION_TYPE":"U","NORAD_CAT_ID":58648,"ELEMENT_SET_NO":999,"REV_AT_EPOCH":12201,"BSTAR":0.00035447031,"MEAN_MOTION_DOT":8.997e-5,"MEAN_MOTION_DDOT":0},{"OBJECT_NAME":"TIANMU-1 19","OBJECT_ID":"2023-208A","EPOCH":"2026-03-07T13:42:46.766304","MEAN_MOTION":15.29779791,"ECCENTRICITY":0.00040777,"INCLINATION":97.4387,"RA_OF_ASC_NODE":182.5562,"ARG_OF_PERICENTER":326.767,"MEAN_ANOMALY":33.3314,"EPHEMERIS_TYPE":0,"CLASSIFICATION_TYPE":"U","NORAD_CAT_ID":58660,"ELEMENT_SET_NO":999,"REV_AT_EPOCH":12178,"BSTAR":0.00050493878,"MEAN_MOTION_DOT":0.00014504,"MEAN_MOTION_DDOT":0},{"OBJECT_NAME":"TIANMU-1 20","OBJECT_ID":"2023-208B","EPOCH":"2026-03-07T14:56:40.782336","MEAN_MOTION":15.30968621,"ECCENTRICITY":0.00063684,"INCLINATION":97.4327,"RA_OF_ASC_NODE":183.1393,"ARG_OF_PERICENTER":333.5558,"MEAN_ANOMALY":26.5357,"EPHEMERIS_TYPE":0,"CLASSIFICATION_TYPE":"U","NORAD_CAT_ID":58661,"ELEMENT_SET_NO":999,"REV_AT_EPOCH":12187,"BSTAR":0.00045873825,"MEAN_MOTION_DOT":0.00013666,"MEAN_MOTION_DDOT":0},{"OBJECT_NAME":"TIANMU-1 21","OBJECT_ID":"2023-208C","EPOCH":"2026-03-07T14:58:26.610240","MEAN_MOTION":15.3297153,"ECCENTRICITY":0.00061514,"INCLINATION":97.4382,"RA_OF_ASC_NODE":185.4072,"ARG_OF_PERICENTER":326.5846,"MEAN_ANOMALY":33.5007,"EPHEMERIS_TYPE":0,"CLASSIFICATION_TYPE":"U","NORAD_CAT_ID":58662,"ELEMENT_SET_NO":999,"REV_AT_EPOCH":12199,"BSTAR":0.00051238586,"MEAN_MOTION_DOT":0.00016265,"MEAN_MOTION_DDOT":0},{"OBJECT_NAME":"TIANMU-1 22","OBJECT_ID":"2023-208D","EPOCH":"2026-03-07T14:07:25.105728","MEAN_MOTION":15.29400117,"ECCENTRICITY":0.00033212,"INCLINATION":97.4382,"RA_OF_ASC_NODE":182.5858,"ARG_OF_PERICENTER":1.3823,"MEAN_ANOMALY":358.7426,"EPHEMERIS_TYPE":0,"CLASSIFICATION_TYPE":"U","NORAD_CAT_ID":58663,"ELEMENT_SET_NO":999,"REV_AT_EPOCH":12179,"BSTAR":0.00046998586,"MEAN_MOTION_DOT":0.00013335,"MEAN_MOTION_DDOT":0},{"OBJECT_NAME":"TIANMU-1 15","OBJECT_ID":"2024-004A","EPOCH":"2026-03-07T14:55:41.119680","MEAN_MOTION":15.25797959,"ECCENTRICITY":0.00068621,"INCLINATION":97.4669,"RA_OF_ASC_NODE":252.8628,"ARG_OF_PERICENTER":357.5076,"MEAN_ANOMALY":2.6127,"EPHEMERIS_TYPE":0,"CLASSIFICATION_TYPE":"U","NORAD_CAT_ID":58700,"ELEMENT_SET_NO":999,"REV_AT_EPOCH":12028,"BSTAR":0.00036844171,"MEAN_MOTION_DOT":9.352e-5,"MEAN_MOTION_DDOT":0},{"OBJECT_NAME":"TIANMU-1 16","OBJECT_ID":"2024-004B","EPOCH":"2026-03-07T14:31:58.359648","MEAN_MOTION":15.25831616,"ECCENTRICITY":0.00053885,"INCLINATION":97.461,"RA_OF_ASC_NODE":252.171,"ARG_OF_PERICENTER":3.762,"MEAN_ANOMALY":356.3658,"EPHEMERIS_TYPE":0,"CLASSIFICATION_TYPE":"U","NORAD_CAT_ID":58701,"ELEMENT_SET_NO":999,"REV_AT_EPOCH":12028,"BSTAR":0.00039060614,"MEAN_MOTION_DOT":9.927e-5,"MEAN_MOTION_DDOT":0},{"OBJECT_NAME":"TIANMU-1 17","OBJECT_ID":"2024-004C","EPOCH":"2026-03-07T15:41:02.074272","MEAN_MOTION":15.25868578,"ECCENTRICITY":0.00046275,"INCLINATION":97.4642,"RA_OF_ASC_NODE":252.6715,"ARG_OF_PERICENTER":7.1637,"MEAN_ANOMALY":352.9666,"EPHEMERIS_TYPE":0,"CLASSIFICATION_TYPE":"U","NORAD_CAT_ID":58702,"ELEMENT_SET_NO":999,"REV_AT_EPOCH":12028,"BSTAR":0.00038670481,"MEAN_MOTION_DOT":9.837e-5,"MEAN_MOTION_DDOT":0},{"OBJECT_NAME":"TIANMU-1 18","OBJECT_ID":"2024-004D","EPOCH":"2026-03-07T15:19:34.488768","MEAN_MOTION":15.25817181,"ECCENTRICITY":0.00040188,"INCLINATION":97.466,"RA_OF_ASC_NODE":252.8678,"ARG_OF_PERICENTER":8.7338,"MEAN_ANOMALY":351.397,"EPHEMERIS_TYPE":0,"CLASSIFICATION_TYPE":"U","NORAD_CAT_ID":58703,"ELEMENT_SET_NO":999,"REV_AT_EPOCH":12028,"BSTAR":0.00036351043,"MEAN_MOTION_DOT":9.227e-5,"MEAN_MOTION_DDOT":0},{"OBJECT_NAME":"INSAT-3DS","OBJECT_ID":"2024-033A","EPOCH":"2026-03-07T15:27:52.997760","MEAN_MOTION":1.0027299,"ECCENTRICITY":0.00021609,"INCLINATION":0.0471,"RA_OF_ASC_NODE":259.559,"ARG_OF_PERICENTER":103.3433,"MEAN_ANOMALY":116.4684,"EPHEMERIS_TYPE":0,"CLASSIFICATION_TYPE":"U","NORAD_CAT_ID":58990,"ELEMENT_SET_NO":999,"REV_AT_EPOCH":4605,"BSTAR":0,"MEAN_MOTION_DOT":-1.57e-6,"MEAN_MOTION_DDOT":0},{"OBJECT_NAME":"METEOR-M2 4","OBJECT_ID":"2024-039A","EPOCH":"2026-03-07T14:37:14.759904","MEAN_MOTION":14.22416808,"ECCENTRICITY":0.00081492,"INCLINATION":98.6905,"RA_OF_ASC_NODE":27.2462,"ARG_OF_PERICENTER":101.5166,"MEAN_ANOMALY":258.6928,"EPHEMERIS_TYPE":0,"CLASSIFICATION_TYPE":"U","NORAD_CAT_ID":59051,"ELEMENT_SET_NO":999,"REV_AT_EPOCH":10482,"BSTAR":5.4220206e-5,"MEAN_MOTION_DOT":7.7e-7,"MEAN_MOTION_DDOT":0}]
