TIANMU-1 10             
1 57402U 23101D   26066.60734284  .00010625  00000+0  37751-3 0  9998
2 57402  97.2750 119.7983 0006755 140.3122 219.8614 15.29172788146118
FENGYUN 3F              
1 57490U 23111A   26066.64446255  .00000100  00000+0  67406-4 0  9996
2 57490  98.6932 138.5105 0001286  80.7747 279.3575 14.19918940134458
ARKTIKA-M 2             
1 58584U 23198A   26064.07652728  .00000150  00000+0  00000+0 0  9992
2 58584  63.2186 165.9003 6877723 267.7621  18.8474  2.00612038 16239
TIANMU-1 11             
1 58645U 23205A   26066.64200438  .00008743  00000+0  34391-3 0  9991
2 58645  97.3546  89.8258 0009235  15.4548 344.6970 15.25846997122037
TIANMU-1 12             
1 58646U 23205B   26066.60874605  .00009429  00000+0  37166-3 0  9996
2 58646  97.3536  89.5724 0007041   1.9829 358.1436 15.25771154122014
TIANMU-1 13             
1 58647U 23205C   26066.63971053  .00009052  00000+0  35644-3 0  9996
2 58647  97.3563  89.8410 0006672 341.5588  18.5407 15.25821122122010
TIANMU-1 14             
1 58648U 23205D   26066.62424869  .00008997  00000+0  35447-3 0  9992
2 58648  97.3498  89.0963 0007578 345.1003  15.0011 15.25797736122017
TIANMU-1 19             
1 58660U 23208A   26066.57137461  .00014504  00000+0  50494-3 0  9992
2 58660  97.4387 182.5562 0004077 326.7670  33.3314 15.29779791121786
TIANMU-1 20             
1 58661U 23208B   26066.62269424  .00013666  00000+0  45874-3 0  9998
2 58661  97.4327 183.1393 0006368 333.5558  26.5357 15.30968621121871
TIANMU-1 21             
1 58662U 23208C   26066.62391910  .00016265  00000+0  51239-3 0  9995
2 58662  97.4382 185.4072 0006151 326.5846  33.5007 15.32971530121992
TIANMU-1 22             
1 58663U 23208D   26066.58848502  .00013335  00000+0  46999-3 0  9997
2 58663  97.4382 182.5858 0003321   1.3823 358.7426 15.29400117121791
TIANMU-1 15             
1 58700U 24004A   26066.62200370  .00009352  00000+0  36844-3 0  9996
2 58700  97.4669 252.8628 0006862 357.5076   2.6127 15.25797959120281
TIANMU-1 16             
1 58701U 24004B   26066.60553657  .00009927  00000+0  39061-3 0  9996
2 58701  97.4610 252.1710 0005388   3.7620 356.3658 15.25831616120287
TIANMU-1 17             
1 58702U 24004C   26066.65349623  .00009837  00000+0  38670-3 0  9993
2 58702  97.4642 252.6715 0004627   7.1637 352.9666 15.25868578120282
TIANMU-1 18             
1 58703U 24004D   26066.63859362  .00009227  00000+0  36351-3 0  9995
2 58703  97.4660 252.8678 0004018   8.7338 351.3970 15.25817181120287
INSAT-3DS               
1 58990U 24033A   26066.64436340 -.00000157  00000+0  00000+0 0  9995
2 58990   0.0471 259.5590 0002160 103.3433 116.4684  1.00272990 46051
METEOR-M2 4             
1 59051U 24039A   26066.60919861  .00000077  00000+0  54220-4 0  9998
2 59051  98.6905  27.2462 0008149 101.5166 258.6928 14.22416808104825
